[{"OBJECT_NAME":"XINZHENGCHENG-01","OBJECT_ID":"2026-066A","EPOCH":"2026-04-02T23:56:28.789152","MEAN_MOTION":14.88095472,"ECCENTRICITY":0.00234411,"INCLINATION":84.8508,"RA_OF_ASC_NODE":275.7933,"ARG_OF_PERICENTER":189.3714,"MEAN_ANOMALY":170.7075,"EPHEMERIS_TYPE":0,"CLASSIFICATION_TYPE":"U","NORAD_CAT_ID":68412,"ELEMENT_SET_NO":999,"REV_AT_EPOCH":54,"BSTAR":0.00013573271,"MEAN_MOTION_DOT":1.283e-5,"MEAN_MOTION_DDOT":0},{"OBJECT_NAME":"LIJIAN-2 R/B","OBJECT_ID":"2026-066B","EPOCH":"2026-03-31T18:24:33.055200","MEAN_MOTION":15.04815352,"ECCENTRICITY":0.06052317,"INCLINATION":84.7161,"RA_OF_ASC_NODE":277.02,"ARG_OF_PERICENTER":206.6432,"MEAN_ANOMALY":150.2503,"EPHEMERIS_TYPE":0,"CLASSIFICATION_TYPE":"U","NORAD_CAT_ID":68413,"ELEMENT_SET_NO":999,"REV_AT_EPOCH":20,"BSTAR":0.00021174642,"MEAN_MOTION_DOT":0.02524605,"MEAN_MOTION_DDOT":-1.158743e-6},{"OBJECT_NAME":"2026-066C","OBJECT_ID":"2026-066C","EPOCH":"2026-04-03T06:23:46.067424","MEAN_MOTION":14.88482509,"ECCENTRICITY":0.00271335,"INCLINATION":84.961,"RA_OF_ASC_NODE":275.4168,"ARG_OF_PERICENTER":151.2579,"MEAN_ANOMALY":209.0147,"EPHEMERIS_TYPE":0,"CLASSIFICATION_TYPE":"U","NORAD_CAT_ID":68414,"ELEMENT_SET_NO":999,"REV_AT_EPOCH":58,"BSTAR":0.00023262862,"MEAN_MOTION_DOT":2.203e-5,"MEAN_MOTION_DDOT":0},{"OBJECT_NAME":"SL-4 R/B","OBJECT_ID":"2026-061S","EPOCH":"2026-04-03T01:00:55.423296","MEAN_MOTION":15.91543707,"ECCENTRICITY":0.00255593,"INCLINATION":82.3046,"RA_OF_ASC_NODE":97.0017,"ARG_OF_PERICENTER":32.1285,"MEAN_ANOMALY":328.1539,"EPHEMERIS_TYPE":0,"CLASSIFICATION_TYPE":"U","NORAD_CAT_ID":68537,"ELEMENT_SET_NO":999,"REV_AT_EPOCH":164,"BSTAR":0.00083776362,"MEAN_MOTION_DOT":0.00277827,"MEAN_MOTION_DDOT":2.7262731e-5},{"OBJECT_NAME":"2026-069B","OBJECT_ID":"2026-069B","EPOCH":"2026-04-02T13:12:59.999616","MEAN_MOTION":1.02407762,"ECCENTRICITY":0.8430033,"INCLINATION":28.3448,"RA_OF_ASC_NODE":359.8421,"ARG_OF_PERICENTER":77.7942,"MEAN_ANOMALY":194.3023,"EPHEMERIS_TYPE":0,"CLASSIFICATION_TYPE":"U","NORAD_CAT_ID":68539,"ELEMENT_SET_NO":999,"REV_AT_EPOCH":0,"BSTAR":-0.0071298,"MEAN_MOTION_DOT":-0.00190496,"MEAN_MOTION_DDOT":1.1727e-6},{"OBJECT_NAME":"2026-069C","OBJECT_ID":"2026-069C","EPOCH":"2026-04-02T12:20:34.000224","MEAN_MOTION":1.0181309,"ECCENTRICITY":0.8353883,"INCLINATION":28.3256,"RA_OF_ASC_NODE":359.7521,"ARG_OF_PERICENTER":77.6495,"MEAN_ANOMALY":183.0402,"EPHEMERIS_TYPE":0,"CLASSIFICATION_TYPE":"U","NORAD_CAT_ID":68540,"ELEMENT_SET_NO":999,"REV_AT_EPOCH":0,"BSTAR":-1.7117,"MEAN_MOTION_DOT":-0.00074286,"MEAN_MOTION_DDOT":0},{"OBJECT_NAME":"2026-069D","OBJECT_ID":"2026-069D","EPOCH":"2026-04-02T16:16:32.999808","MEAN_MOTION":1.02517944,"ECCENTRICITY":0.8450105,"INCLINATION":28.3341,"RA_OF_ASC_NODE":359.8703,"ARG_OF_PERICENTER":77.6642,"MEAN_ANOMALY":243.1767,"EPHEMERIS_TYPE":0,"CLASSIFICATION_TYPE":"U","NORAD_CAT_ID":68541,"ELEMENT_SET_NO":999,"REV_AT_EPOCH":3,"BSTAR":-1.7218e-5,"MEAN_MOTION_DOT":-0.00078411,"MEAN_MOTION_DDOT":1.9505e-6}]
